{"fetched_at":"2026-07-09T18:17:04.137Z","source":"https://celestrak.org/NORAD/elements/gp.php?NAME=GLOBAL&FORMAT=JSON","constellation":"blacksky-gen3","records":[{"OBJECT_NAME":"GLOBAL-31","OBJECT_ID":"2025-033B","EPOCH":"2026-07-08T13:29:34.355616","CLASSIFICATION_TYPE":"U","MEAN_MOTION":15.3822722,"ECCENTRICITY":0.0011328,"INCLINATION":58.9973,"RA_OF_ASC_NODE":229.7708,"ARG_OF_PERICENTER":53.6227,"MEAN_ANOMALY":306.5893,"EPHEMERIS_TYPE":0,"NORAD_CAT_ID":63027,"ELEMENT_SET_NO":999,"REV_AT_EPOCH":7761,"BSTAR":0.00018609004,"MEAN_MOTION_DOT":0.00006751,"MEAN_MOTION_DDOT":0},{"OBJECT_NAME":"GLOBAL-32","OBJECT_ID":"2025-118B","EPOCH":"2026-07-08T21:28:44.143104","CLASSIFICATION_TYPE":"U","MEAN_MOTION":15.39172838,"ECCENTRICITY":0.00158941,"INCLINATION":58.9936,"RA_OF_ASC_NODE":44.6738,"ARG_OF_PERICENTER":57.2126,"MEAN_ANOMALY":303.0479,"EPHEMERIS_TYPE":0,"NORAD_CAT_ID":64231,"ELEMENT_SET_NO":999,"REV_AT_EPOCH":6158,"BSTAR":0.00024492254,"MEAN_MOTION_DOT":0.00009306,"MEAN_MOTION_DDOT":0},{"OBJECT_NAME":"GLOBAL-33","OBJECT_ID":"2025-267A","EPOCH":"2026-07-08T17:52:44.504256","CLASSIFICATION_TYPE":"U","MEAN_MOTION":15.37217075,"ECCENTRICITY":0.00084708,"INCLINATION":42.0199,"RA_OF_ASC_NODE":290.8287,"ARG_OF_PERICENTER":37.9254,"MEAN_ANOMALY":322.2181,"EPHEMERIS_TYPE":0,"NORAD_CAT_ID":66554,"ELEMENT_SET_NO":999,"REV_AT_EPOCH":3536,"BSTAR":0.00025096925,"MEAN_MOTION_DOT":0.00009107,"MEAN_MOTION_DDOT":0},{"OBJECT_NAME":"GLOBAL-34","OBJECT_ID":"2026-043A","EPOCH":"2026-07-08T11:07:47.332992","CLASSIFICATION_TYPE":"U","MEAN_MOTION":15.33019699,"ECCENTRICITY":0.00014852,"INCLINATION":42.0211,"RA_OF_ASC_NODE":97.7191,"ARG_OF_PERICENTER":51.8099,"MEAN_ANOMALY":308.2872,"EPHEMERIS_TYPE":0,"NORAD_CAT_ID":68098,"ELEMENT_SET_NO":999,"REV_AT_EPOCH":1909,"BSTAR":0.00023395884,"MEAN_MOTION_DOT":0.00007378,"MEAN_MOTION_DDOT":0}]}
