GLOBAL-31               
1 63027U 25033B   26189.56220319  .00006751  00000+0  18609-3 0  9990
2 63027  58.9973 229.7708 0011328  53.6227 306.5893 15.38227220 77613
GLOBAL-32               
1 64231U 25118B   26189.89495536  .00009306  00000+0  24492-3 0  9999
2 64231  58.9936  44.6738 0015894  57.2126 303.0479 15.39172838 61583
GLOBAL-33               
1 66554U 25267A   26189.74495954  .00009107  00000+0  25097-3 0  9993
2 66554  42.0199 290.8287 0008470  37.9254 322.2181 15.37217075 35362
GLOBAL-34               
1 68098U 26043A   26189.46374228  .00007378  00000+0  23396-3 0  9998
2 68098  42.0211  97.7191 0001485  51.8099 308.2872 15.33019699 19092
